[{"OBJECT_NAME":"STARLINK-34583","OBJECT_ID":"2025-142T","EPOCH":"2025-09-03T22:00:00.999936","MEAN_MOTION":15.40368535,"ECCENTRICITY":0.00038346,"INCLINATION":69.9996,"RA_OF_ASC_NODE":66.5399,"ARG_OF_PERICENTER":272.7331,"MEAN_ANOMALY":123.4044,"EPHEMERIS_TYPE":0,"CLASSIFICATION_TYPE":"U","NORAD_CAT_ID":64713,"ELEMENT_SET_NO":999,"REV_AT_EPOCH":586,"BSTAR":-0.044699472,"MEAN_MOTION_DOT":-0.01623384,"MEAN_MOTION_DDOT":0},{"OBJECT_NAME":"STARLINK-34574","OBJECT_ID":"2025-142U","EPOCH":"2025-09-03T21:38:47.499360","MEAN_MOTION":15.41121297,"ECCENTRICITY":0.0002208,"INCLINATION":70.0004,"RA_OF_ASC_NODE":66.5266,"ARG_OF_PERICENTER":277.6086,"MEAN_ANOMALY":82.4844,"EPHEMERIS_TYPE":0,"CLASSIFICATION_TYPE":"U","NORAD_CAT_ID":64714,"ELEMENT_SET_NO":999,"REV_AT_EPOCH":1148,"BSTAR":-0.0073092857,"MEAN_MOTION_DOT":-0.0029246,"MEAN_MOTION_DDOT":0},{"OBJECT_NAME":"STARLINK-34533","OBJECT_ID":"2025-142V","EPOCH":"2025-09-03T21:08:58.196832","MEAN_MOTION":15.42704292,"ECCENTRICITY":0.00033619,"INCLINATION":69.9993,"RA_OF_ASC_NODE":66.864,"ARG_OF_PERICENTER":274.0421,"MEAN_ANOMALY":86.0377,"EPHEMERIS_TYPE":0,"CLASSIFICATION_TYPE":"U","NORAD_CAT_ID":64715,"ELEMENT_SET_NO":999,"REV_AT_EPOCH":1144,"BSTAR":0.001733713,"MEAN_MOTION_DOT":0.00076511,"MEAN_MOTION_DDOT":0},{"OBJECT_NAME":"STARLINK-34548","OBJECT_ID":"2025-142W","EPOCH":"2025-09-03T19:29:52.133280","MEAN_MOTION":15.42690827,"ECCENTRICITY":0.00032992,"INCLINATION":70.0002,"RA_OF_ASC_NODE":67.0251,"ARG_OF_PERICENTER":260.5985,"MEAN_ANOMALY":99.4824,"EPHEMERIS_TYPE":0,"CLASSIFICATION_TYPE":"U","NORAD_CAT_ID":64716,"ELEMENT_SET_NO":999,"REV_AT_EPOCH":1143,"BSTAR":0.0020096144,"MEAN_MOTION_DOT":0.00088812,"MEAN_MOTION_DDOT":0},{"OBJECT_NAME":"STARLINK-34568","OBJECT_ID":"2025-142X","EPOCH":"2025-09-03T20:57:14.963904","MEAN_MOTION":15.42663029,"ECCENTRICITY":0.00032287,"INCLINATION":69.9999,"RA_OF_ASC_NODE":66.8351,"ARG_OF_PERICENTER":268.4735,"MEAN_ANOMALY":91.6077,"EPHEMERIS_TYPE":0,"CLASSIFICATION_TYPE":"U","NORAD_CAT_ID":64717,"ELEMENT_SET_NO":999,"REV_AT_EPOCH":1147,"BSTAR":0.0012731342,"MEAN_MOTION_DOT":0.00055918,"MEAN_MOTION_DDOT":0},{"OBJECT_NAME":"STARLINK-34546","OBJECT_ID":"2025-142Y","EPOCH":"2025-09-03T22:24:56.630592","MEAN_MOTION":15.42695766,"ECCENTRICITY":0.00031052,"INCLINATION":70.0001,"RA_OF_ASC_NODE":66.6449,"ARG_OF_PERICENTER":289.756,"MEAN_ANOMALY":70.3287,"EPHEMERIS_TYPE":0,"CLASSIFICATION_TYPE":"U","NORAD_CAT_ID":64718,"ELEMENT_SET_NO":999,"REV_AT_EPOCH":1164,"BSTAR":0.0012928085,"MEAN_MOTION_DOT":0.00056853,"MEAN_MOTION_DDOT":0},{"OBJECT_NAME":"STARLINK-34577","OBJECT_ID":"2025-142Z","EPOCH":"2025-09-03T22:13:16.234176","MEAN_MOTION":15.42707703,"ECCENTRICITY":0.00033371,"INCLINATION":69.9997,"RA_OF_ASC_NODE":66.6149,"ARG_OF_PERICENTER":277.2108,"MEAN_ANOMALY":82.8694,"EPHEMERIS_TYPE":0,"CLASSIFICATION_TYPE":"U","NORAD_CAT_ID":64719,"ELEMENT_SET_NO":999,"REV_AT_EPOCH":1148,"BSTAR":0.0012027865,"MEAN_MOTION_DOT":0.00052879,"MEAN_MOTION_DDOT":0},{"OBJECT_NAME":"STARLINK-34572","OBJECT_ID":"2025-142AA","EPOCH":"2025-09-03T22:18:58.639968","MEAN_MOTION":15.4267838,"ECCENTRICITY":0.00030791,"INCLINATION":70.0001,"RA_OF_ASC_NODE":66.6301,"ARG_OF_PERICENTER":282.2689,"MEAN_ANOMALY":77.8148,"EPHEMERIS_TYPE":0,"CLASSIFICATION_TYPE":"U","NORAD_CAT_ID":64720,"ELEMENT_SET_NO":999,"REV_AT_EPOCH":1164,"BSTAR":0.0013151017,"MEAN_MOTION_DOT":0.00057809,"MEAN_MOTION_DDOT":0},{"OBJECT_NAME":"STARLINK-34558","OBJECT_ID":"2025-142AB","EPOCH":"2025-09-03T21:32:23.075520","MEAN_MOTION":15.42265539,"ECCENTRICITY":0.00014679,"INCLINATION":70.0009,"RA_OF_ASC_NODE":66.5106,"ARG_OF_PERICENTER":315.2901,"MEAN_ANOMALY":44.8162,"EPHEMERIS_TYPE":0,"CLASSIFICATION_TYPE":"U","NORAD_CAT_ID":64721,"ELEMENT_SET_NO":999,"REV_AT_EPOCH":1145,"BSTAR":-0.0040609749,"MEAN_MOTION_DOT":-0.00171491,"MEAN_MOTION_DDOT":0},{"OBJECT_NAME":"STARLINK-34393","OBJECT_ID":"2025-144A","EPOCH":"2025-09-02T23:05:29.834304","MEAN_MOTION":15.30239073,"ECCENTRICITY":0.0001382,"INCLINATION":53.1607,"RA_OF_ASC_NODE":332.76,"ARG_OF_PERICENTER":93.0587,"MEAN_ANOMALY":267.0572,"EPHEMERIS_TYPE":0,"CLASSIFICATION_TYPE":"U","NORAD_CAT_ID":64724,"ELEMENT_SET_NO":999,"REV_AT_EPOCH":1098,"BSTAR":0.0014072284,"MEAN_MOTION_DOT":0.00041603,"MEAN_MOTION_DDOT":0},{"OBJECT_NAME":"STARLINK-34562","OBJECT_ID":"2025-144B","EPOCH":"2025-09-03T12:37:11.317152","MEAN_MOTION":15.30217851,"ECCENTRICITY":7.174e-5,"INCLINATION":53.1578,"RA_OF_ASC_NODE":330.5901,"ARG_OF_PERICENTER":138.2895,"MEAN_ANOMALY":221.816,"EPHEMERIS_TYPE":0,"CLASSIFICATION_TYPE":"U","NORAD_CAT_ID":64725,"ELEMENT_SET_NO":999,"REV_AT_EPOCH":1103,"BSTAR":0.0018225046,"MEAN_MOTION_DOT":0.00054041,"MEAN_MOTION_DDOT":0},{"OBJECT_NAME":"STARLINK-34557","OBJECT_ID":"2025-144C","EPOCH":"2025-09-03T12:06:47.897856","MEAN_MOTION":15.30209093,"ECCENTRICITY":0.00012064,"INCLINATION":53.1614,"RA_OF_ASC_NODE":330.4584,"ARG_OF_PERICENTER":89.8936,"MEAN_ANOMALY":270.2203,"EPHEMERIS_TYPE":0,"CLASSIFICATION_TYPE":"U","NORAD_CAT_ID":64726,"ELEMENT_SET_NO":999,"REV_AT_EPOCH":1105,"BSTAR":0.0003326519,"MEAN_MOTION_DOT":9.508e-5,"MEAN_MOTION_DDOT":0},{"OBJECT_NAME":"STARLINK-34242","OBJECT_ID":"2025-144D","EPOCH":"2025-09-03T12:47:49.788096","MEAN_MOTION":15.30159701,"ECCENTRICITY":5.264e-5,"INCLINATION":53.1578,"RA_OF_ASC_NODE":330.6328,"ARG_OF_PERICENTER":11.8358,"MEAN_ANOMALY":348.2655,"EPHEMERIS_TYPE":0,"CLASSIFICATION_TYPE":"U","NORAD_CAT_ID":64727,"ELEMENT_SET_NO":999,"REV_AT_EPOCH":1105,"BSTAR":0.0018118635,"MEAN_MOTION_DOT":0.00053624,"MEAN_MOTION_DDOT":0},{"OBJECT_NAME":"STARLINK-34239","OBJECT_ID":"2025-144E","EPOCH":"2025-09-03T11:56:09.624768","MEAN_MOTION":15.30200156,"ECCENTRICITY":0.00020973,"INCLINATION":53.1617,"RA_OF_ASC_NODE":330.4099,"ARG_OF_PERICENTER":97.6582,"MEAN_ANOMALY":262.4657,"EPHEMERIS_TYPE":0,"CLASSIFICATION_TYPE":"U","NORAD_CAT_ID":64728,"ELEMENT_SET_NO":999,"REV_AT_EPOCH":1105,"BSTAR":-8.1268495e-5,"MEAN_MOTION_DOT":-2.766e-5,"MEAN_MOTION_DDOT":0},{"OBJECT_NAME":"STARLINK-34588","OBJECT_ID":"2025-144F","EPOCH":"2025-09-03T12:28:04.502784","MEAN_MOTION":15.30164081,"ECCENTRICITY":0.00013721,"INCLINATION":53.159,"RA_OF_ASC_NODE":330.5482,"ARG_OF_PERICENTER":77.2,"MEAN_ANOMALY":282.9154,"EPHEMERIS_TYPE":0,"CLASSIFICATION_TYPE":"U","NORAD_CAT_ID":64729,"ELEMENT_SET_NO":999,"REV_AT_EPOCH":1105,"BSTAR":0.0016680837,"MEAN_MOTION_DOT":0.00049318,"MEAN_MOTION_DDOT":0},{"OBJECT_NAME":"STARLINK-34606","OBJECT_ID":"2025-144G","EPOCH":"2025-09-03T16:39:50.826528","MEAN_MOTION":15.30143303,"ECCENTRICITY":0.00013311,"INCLINATION":53.1612,"RA_OF_ASC_NODE":329.5081,"ARG_OF_PERICENTER":91.6322,"MEAN_ANOMALY":268.4832,"EPHEMERIS_TYPE":0,"CLASSIFICATION_TYPE":"U","NORAD_CAT_ID":64730,"ELEMENT_SET_NO":999,"REV_AT_EPOCH":1108,"BSTAR":0.0022181725,"MEAN_MOTION_DOT":0.00065804,"MEAN_MOTION_DDOT":0}]
