STARLINK-34583          
1 64713U 25142T   25246.91667824 -.01623384  00000+0 -44699-1 0  9998
2 64713  69.9996  66.5399 0003834 272.7331 123.4044 15.40368535  5869
STARLINK-34574          
1 64714U 25142U   25246.90193865 -.00292460  00000+0 -73093-2 0  9994
2 64714  70.0004  66.5266 0002208 277.6086  82.4844 15.41121297 11481
STARLINK-34533          
1 64715U 25142V   25246.88122913  .00076511  00000+0  17337-2 0  9992
2 64715  69.9993  66.8640 0003361 274.0421  86.0377 15.42704292 11440
STARLINK-34548          
1 64716U 25142W   25246.81240895  .00088812  00000+0  20096-2 0  9999
2 64716  70.0002  67.0251 0003299 260.5985  99.4824 15.42690827 11433
STARLINK-34568          
1 64717U 25142X   25246.87308986  .00055918  00000+0  12731-2 0  9990
2 64717  69.9999  66.8351 0003228 268.4735  91.6077 15.42663029 11478
STARLINK-34546          
1 64718U 25142Y   25246.93398878  .00056853  00000+0  12928-2 0  9994
2 64718  70.0001  66.6449 0003105 289.7560  70.3287 15.42695766 11647
STARLINK-34577          
1 64719U 25142Z   25246.92588234  .00052879  00000+0  12028-2 0  9996
2 64719  69.9997  66.6149 0003337 277.2108  82.8694 15.42707703 11480
STARLINK-34572          
1 64720U 25142AA  25246.92984537  .00057809  00000+0  13151-2 0  9990
2 64720  70.0001  66.6301 0003079 282.2689  77.8148 15.42678380 11648
STARLINK-34558          
1 64721U 25142AB  25246.89748930 -.00171491  00000+0 -40610-2 0  9998
2 64721  70.0009  66.5106 0001467 315.2901  44.8162 15.42265539 11459
STARLINK-34393          
1 64724U 25144A   25245.96215086  .00041603  00000+0  14072-2 0  9993
2 64724  53.1607 332.7600 0001382  93.0587 267.0572 15.30239073 10984
STARLINK-34562          
1 64725U 25144B   25246.52582543  .00054041  00000+0  18225-2 0  9996
2 64725  53.1578 330.5901 0000717 138.2895 221.8160 15.30217851 11035
STARLINK-34557          
1 64726U 25144C   25246.50472104  .00009508  00000+0  33265-3 0  9996
2 64726  53.1614 330.4584 0001206  89.8936 270.2203 15.30209093 11051
STARLINK-34242          
1 64727U 25144D   25246.53321514  .00053624  00000+0  18119-2 0  9996
2 64727  53.1578 330.6328 0000526  11.8358 348.2655 15.30159701 11053
STARLINK-34239          
1 64728U 25144E   25246.49733362 -.00002766  00000+0 -81268-4 0  9990
2 64728  53.1617 330.4099 0002097  97.6582 262.4657 15.30200156 11057
STARLINK-34588          
1 64729U 25144F   25246.51949656  .00049318  00000+0  16681-2 0  9996
2 64729  53.1590 330.5482 0001372  77.2000 282.9154 15.30164081 11054
STARLINK-34606          
1 64730U 25144G   25246.69433827  .00065804  00000+0  22182-2 0  9996
2 64730  53.1612 329.5081 0001331  91.6322 268.4832 15.30143303 11085
